IRIDIUM 106             
1 41917U 17003A   24150.20020877  .00000334  00000+0  11202-3 0  9999
2 41917  86.3992  41.5236 0001945  97.6858 262.4559 14.34220143385850
IRIDIUM 103             
1 41918U 17003B   24150.46660015  .00000322  00000+0  10794-3 0  9994
2 41918  86.3991  41.3140 0001991  79.3465 280.7955 14.34219229385917
IRIDIUM 109             
1 41919U 17003C   24150.61247940  .00000310  00000+0  10354-3 0  9999
2 41919  86.3993  41.3002 0002409  81.0257 279.1211 14.34219246385906
IRIDIUM 102             
1 41920U 17003D   24150.72030476  .00000202  00000+0  65007-4 0  9993
2 41920  86.3991  41.1947 0002391  84.9360 275.2108 14.34218024386006
IRIDIUM 105             
1 41921U 17003E   24150.62127454  .00000347  00000+0  11682-3 0  9995
2 41921  86.3991   9.6752 0002025  83.8683 276.2744 14.34204853387845
IRIDIUM 104             
1 41922U 17003F   24150.24462302  .00000328  00000+0  10989-3 0  9996
2 41922  86.3992  41.4247 0002403  77.3723 282.7741 14.34218120385921
IRIDIUM 114             
1 41923U 17003G   24150.18118382  .00000211  00000+0  68186-4 0  9990
2 41923  86.3991  41.4371 0002097  89.9724 270.1712 14.34218786385891
IRIDIUM 108             
1 41924U 17003H   24150.62808494  .00000370  00000+0  12498-3 0  9990
2 41924  86.3986   9.5985 0002034  92.2693 267.8736 14.34216675387813
